$$SOE
2460728.500000000, A.D. 2025-Feb-22 00:00:00.0000, -3.977894411786569E+08, -2.406029294790990E+08, 1.202675684768096E+07,
2460735.500000000, A.D. 2025-Mar-01 00:00:00.0000, -3.932248497247948E+08, -2.499437924012999E+08, 1.208802913278750E+07,
2460742.500000000, A.D. 2025-Mar-08 00:00:00.0000, -3.884717256830266E+08, -2.591648916488650E+08, 1.214350584316139E+07,
2460749.500000000, A.D. 2025-Mar-15 00:00:00.0000, -3.835335971658921E+08, -2.682626406721774E+08, 1.219319925176761E+07,
2460756.500000000, A.D. 2025-Mar-22 00:00:00.0000, -3.784140450928336E+08, -2.772335650103812E+08, 1.223712480799370E+07,
2460763.500000000, A.D. 2025-Mar-29 00:00:00.0000, -3.731167001461999E+08, -2.860743037350489E+08, 1.227530098699391E+07,
2460770.500000000, A.D. 2025-Apr-05 00:00:00.0000, -3.676452381379431E+08, -2.947816098862597E+08, 1.230774905675502E+07,
2460777.500000000, A.D. 2025-Apr-12 00:00:00.0000, -3.620033757154027E+08, -3.033523498024056E+08, 1.233449294804026E+07,
2460784.500000000, A.D. 2025-Apr-19 00:00:00.0000, -3.561948665938795E+08, -3.117835022302598E+08, 1.235555917219080E+07,
2460791.500000000, A.D. 2025-Apr-26 00:00:00.0000, -3.502234980439115E+08, -3.200721574243810E+08, 1.237097674500811E+07,
2460798.500000000, A.D. 2025-May-03 00:00:00.0000, -3.440930875190810E+08, -3.282155162237752E+08, 1.238077710760970E+07,
2460805.500000000, A.D. 2025-May-10 00:00:00.0000, -3.378074793957248E+08, -3.362108891050409E+08, 1.238499404218666E+07,
2460812.500000000, A.D. 2025-May-17 00:00:00.0000, -3.313705417884505E+08, -3.440556952611820E+08, 1.238366357589580E+07,
2460819.500000000, A.D. 2025-May-24 00:00:00.0000, -3.247861632686186E+08, -3.517474617683484E+08, 1.237682385254961E+07,
2460826.500000000, A.D. 2025-May-31 00:00:00.0000, -3.180582490690414E+08, -3.592838225365214E+08, 1.236451495935109E+07,
2460833.500000000, A.D. 2025-Jun-07 00:00:00.0000, -3.111907171762064E+08, -3.666625158453511E+08, 1.234677884408467E+07,
2460840.500000000, A.D. 2025-Jun-14 00:00:00.0000, -3.041874966738491E+08, -3.738813811373796E+08, 1.232365948525497E+07,
2460847.500000000, A.D. 2025-Jun-21 00:00:00.0000, -2.970525271200190E+08, -3.809383583459889E+08, 1.229520293628231E+07,
2460854.500000000, A.D. 2025-Jun-28 00:00:00.0000, -2.897897558290778E+08, -3.878314879996403E+08, 1.226145710120124E+07,
2460861.500000000, A.D. 2025-Jul-05 00:00:00.0000, -2.824031345747358E+08, -3.945589099508991E+08, 1.222247155743052E+07,
2460868.500000000, A.D. 2025-Jul-12 00:00:00.0000, -2.748966169034653E+08, -4.011188615395521E+08, 1.217829746918052E+07,
2460875.500000000, A.D. 2025-Jul-19 00:00:00.0000, -2.672741558663639E+08, -4.075096757688173E+08, 1.212898752716896E+07,
2460882.500000000, A.D. 2025-Jul-26 00:00:00.0000, -2.595397019569802E+08, -4.137297795555063E+08, 1.207459589079562E+07,
2460889.500000000, A.D. 2025-Aug-02 00:00:00.0000, -2.516972011873762E+08, -4.197776920370186E+08, 1.201517812863156E+07,
2460896.500000000, A.D. 2025-Aug-09 00:00:00.0000, -2.437505932769257E+08, -4.256520229540991E+08, 1.195079115405202E+07,
2460903.500000000, A.D. 2025-Aug-16 00:00:00.0000, -2.357038098748502E+08, -4.313514711764113E+08, 1.188149314401817E+07,
2460910.500000000, A.D. 2025-Aug-23 00:00:00.0000, -2.275607725216731E+08, -4.368748233578762E+08, 1.180734341577151E+07,
2460917.500000000, A.D. 2025-Aug-30 00:00:00.0000, -2.193253900183439E+08, -4.422209520108447E+08, 1.172840228988770E+07,
2460924.500000000, A.D. 2025-Sep-06 00:00:00.0000, -2.110015566185848E+08, -4.473888120013961E+08, 1.164473115175620E+07,
2460931.500000000, A.D. 2025-Sep-13 00:00:00.0000, -2.025931527120809E+08, -4.523774379509874E+08, 1.155639266198397E+07,
2460938.500000000, A.D. 2025-Sep-20 00:00:00.0000, -1.941040447222608E+08, -4.571859441921157E+08, 1.146345068128732E+07,
2460945.500000000, A.D. 2025-Sep-27 00:00:00.0000, -1.855380831579446E+08, -4.618135241699051E+08, 1.136597006733626E+07,
2460952.500000000, A.D. 2025-Oct-04 00:00:00.0000, -1.768991008334767E+08, -4.662594487528207E+08, 1.126401657283506E+07,
2460959.500000000, A.D. 2025-Oct-11 00:00:00.0000, -1.681909116285334E+08, -4.705230643971753E+08, 1.115765680216318E+07,
2460966.500000000, A.D. 2025-Oct-18 00:00:00.0000, -1.594173095011768E+08, -4.746037914412431E+08, 1.104695817811936E+07,
2460973.500000000, A.D. 2025-Oct-25 00:00:00.0000, -1.505820676116823E+08, -4.785011225194108E+08, 1.093198890675136E+07,
2460980.500000000, A.D. 2025-Nov-01 00:00:00.0000, -1.416889375148261E+08, -4.822146210825162E+08, 1.081281793775159E+07,
2460987.500000000, A.D. 2025-Nov-08 00:00:00.0000, -1.327416483834962E+08, -4.857439200575315E+08, 1.068951491450989E+07,
2460994.500000000, A.D. 2025-Nov-15 00:00:00.0000, -1.237439061134607E+08, -4.890887207067491E+08, 1.056215009530234E+07,
2461001.500000000, A.D. 2025-Nov-22 00:00:00.0000, -1.146993919044854E+08, -4.922487914677311E+08, 1.043079422648966E+07,
2461008.500000000, A.D. 2025-Nov-29 00:00:00.0000, -1.056117604690535E+08, -4.952239656400084E+08, 1.029551847434837E+07,
2461015.500000000, A.D. 2025-Dec-06 00:00:00.0000, -9.648464014412224E+07, -4.980141380547538E+08, 1.015639461308965E+07,
2461022.500000000, A.D. 2025-Dec-13 00:00:00.0000, -8.732163446987210E+07, -5.006192640975895E+08, 1.001349515360141E+07,
2461029.500000000, A.D. 2025-Dec-20 00:00:00.0000, -7.812632173995088E+07, -5.030393600617512E+08, 9.866893175963253E+06,
2461036.500000000, A.D. 2025-Dec-27 00:00:00.0000, -6.890225359504284E+07, -5.052745022403506E+08, 9.716662175927281E+06,
2461043.500000000, A.D. 2026-Jan-03 00:00:00.0000, -5.965295411662972E+07, -5.073248253724415E+08, 9.562876008831412E+06,
2461050.500000000, A.D. 2026-Jan-10 00:00:00.0000, -5.038191930828375E+07, -5.091905211209254E+08, 9.405608865311116E+06,
2461057.500000000, A.D. 2026-Jan-17 00:00:00.0000, -4.109261672896400E+07, -5.108718366735893E+08, 9.244935249949306E+06,
2461064.500000000, A.D. 2026-Jan-24 00:00:00.0000, -3.178848519776320E+07, -5.123690734448760E+08, 9.080929957578599E+06,
2461071.500000000, A.D. 2026-Jan-31 00:00:00.0000, -2.247293454455930E+07, -5.136825858862635E+08, 8.913668044563144E+06,
2461078.500000000, A.D. 2026-Feb-07 00:00:00.0000, -1.314934534343594E+07, -5.148127804629191E+08, 8.743224784875304E+06,
2461085.500000000, A.D. 2026-Feb-14 00:00:00.0000, -3.821068374484190E+06, -5.157601148118585E+08, 8.569675586673021E+06,
2461092.500000000, A.D. 2026-Feb-21 00:00:00.0000, 5.508576574822810E+06, -5.165250965041193E+08, 8.393095881141156E+06,
2461099.500000000, A.D. 2026-Feb-28 00:00:00.0000, 1.483630148510083E+07, -5.171082802565932E+08, 8.213561177454591E+06,
2461106.500000000, A.D. 2026-Mar-07 00:00:00.0000, 2.415884840035698E+07, -5.175102655421010E+08, 8.031147313305765E+06,
2461113.500000000, A.D. 2026-Mar-14 00:00:00.0000, 3.347298802100933E+07, -5.177316969294170E+08, 7.845930455713630E+06,
2461120.500000000, A.D. 2026-Mar-21 00:00:00.0000, 4.277552037962551E+07, -5.177732642554428E+08, 7.657986925477952E+06,
2461127.500000000, A.D. 2026-Mar-28 00:00:00.0000, 5.206327559154840E+07, -5.176357016012182E+08, 7.467393113787860E+06,
2461134.500000000, A.D. 2026-Apr-04 00:00:00.0000, 6.133311407804062E+07, -5.173197860373102E+08, 7.274225467593312E+06,
2461141.500000000, A.D. 2026-Apr-11 00:00:00.0000, 7.058192653721580E+07, -5.168263364981971E+08, 7.078560489355952E+06,
2461148.500000000, A.D. 2026-Apr-18 00:00:00.0000, 7.980663382346554E+07, -5.161562127918812E+08, 6.880474736173332E+06,
2461155.500000000, A.D. 2026-Apr-25 00:00:00.0000, 8.900418678282915E+07, -5.153103147294477E+08, 6.680044815404117E+06,
2461162.500000000, A.D. 2026-May-02 00:00:00.0000, 9.817156607687509E+07, -5.142895814036880E+08, 6.477347371673316E+06,
2461169.500000000, A.D. 2026-May-09 00:00:00.0000, 1.073057821216800E+08, -5.130949906828256E+08, 6.272459048543900E+06,
2461176.500000000, A.D. 2026-May-16 00:00:00.0000, 1.164038755216515E+08, -5.117275587811405E+08, 6.065456401633799E+06,
2461183.500000000, A.D. 2026-May-23 00:00:00.0000, 1.254629180513966E+08, -5.101883388843296E+08, 5.856415842085451E+06,
2461190.500000000, A.D. 2026-May-30 00:00:00.0000, 1.344800121080700E+08, -5.084784185097597E+08, 5.645413827141553E+06,
2461197.500000000, A.D. 2026-Jun-06 00:00:00.0000, 1.434522883178000E+08, -5.065989188740509E+08, 5.432527059232980E+06,
2461204.500000000, A.D. 2026-Jun-13 00:00:00.0000, 1.523769049635871E+08, -5.045509960682021E+08, 5.217832373366117E+06,
2461211.500000000, A.D. 2026-Jun-20 00:00:00.0000, 1.612510487349967E+08, -5.023358411142047E+08, 5.001406597685277E+06,
2461218.500000000, A.D. 2026-Jun-27 00:00:00.0000, 1.700719351021490E+08, -4.999546792430060E+08, 4.783326514979035E+06,
2461225.500000000, A.D. 2026-Jul-04 00:00:00.0000, 1.788368083145795E+08, -4.974087691682826E+08, 4.563668861528158E+06,
2461232.500000000, A.D. 2026-Jul-11 00:00:00.0000, 1.875429412795834E+08, -4.946994024872713E+08, 4.342510328927845E+06,
2461239.500000000, A.D. 2026-Jul-18 00:00:00.0000, 1.961876354134755E+08, -4.918279031821244E+08, 4.119927562186450E+06,
2461246.500000000, A.D. 2026-Jul-25 00:00:00.0000, 2.047682204910413E+08, -4.887956272181619E+08, 3.895997151802391E+06,
2461253.500000000, A.D. 2026-Aug-01 00:00:00.0000, 2.132820545423502E+08, -4.856039622863162E+08, 3.670795611234367E+06,
2461260.500000000, A.D. 2026-Aug-08 00:00:00.0000, 2.217265240130483E+08, -4.822543277252355E+08, 3.444399316975623E+06,
2461267.500000000, A.D. 2026-Aug-15 00:00:00.0000, 2.300990446041798E+08, -4.787481741727740E+08, 3.216884409928054E+06,
2461274.500000000, A.D. 2026-Aug-22 00:00:00.0000, 2.383970620308013E+08, -4.750869817257684E+08, 2.988326827695876E+06,
2461281.500000000, A.D. 2026-Aug-29 00:00:00.0000, 2.466180504098524E+08, -4.712722579800460E+08, 2.758802565511316E+06,
2461288.500000000, A.D. 2026-Sep-05 00:00:00.0000, 2.547595104107295E+08, -4.673055388167447E+08, 2.528387735545725E+06,
2461295.500000000, A.D. 2026-Sep-12 00:00:00.0000, 2.628189696244979E+08, -4.631883894375888E+08, 2.297158403288901E+06,
$$EOE